{"type": "FeatureCollection", "features": [{"type": "Feature", "properties": {"ip": "2607:f8b0:4009:801::2004", "url": "https://www.google.com/pagead/1p-user-list/988177400/?random=1752846535955&cv=11&fst=1752843600000&bg=ffffff&guid=ON&async=1&gtm=45be57g1z86270736za200zb6270736&gcd=13l3l3l3l1l1&dma=0&tag_exp=101509157~103116026~103200004~103233427~103351869~103351871~104684208~104684211~104732253~104732255~104908321~104908323~104964065~104964067~104967141~104967143&u_w=1920&u_h=1080&url=https%3A%2F%2Fwww.artic.edu%2F&ref=https%3A%2F%2Fwww.google.com%2F&hn=www.googleadservices.com&frm=0&tiba=Home%20%7C%20The%20Art%20Institute%20of%20Chicago&npa=0&pscdl=noapi&auid=675619198.1750533219&uaa=x86&uab=64&uafvl=Not)A%253BBrand%3B8.0.0.0%7CChromium%3B138.0.7204.97%7CGoogle%2520Chrome%3B138.0.7204.97&uamb=0&uam=&uap=Windows&uapv=19.0.0&uaw=0&fledge=1&_tu=Cg&rfmt=3&fmt=3&is_vtc=1&cid=CAQSlgEA2abss3Hsdo4n7wMr4K2YHW0-T6QpxAap-Hm_yF7tqQVQugFAOuF3UsAtI8Fx-0gE6BuHncWbzQQM-47_-TeC49AJh8ktCAf_dsc9m-hJr2-IFbPimSuoCL76SagtG-DGOWvq567vx4a6fgcetkZ0bNvfBRksU4A7hMppo5A8LTpi45ik5m9JJ6swbWNA3c1106uK6Sg&random=1024740396&rmt_tld=0&ipr=y"}, "geometry": {"type": "Point", "coordinates": [-87.65, 41.85]}}, {"type": "Feature", "properties": {"ip": "2a04:4e42:400::720", "url": "https://artic-web.imgix.net/fd36787d-a4f7-480c-8e34-11115a9d240a/navigation-thumbnail-art-and-artists.jpg?auto=format&q=1&fit=crop&crop=faces%2Ccenter&w=750&h=auto&blur=1200&sat=20"}, "geometry": {"type": "Point", "coordinates": [-122.4194, 37.7749]}}, {"type": "Feature", "properties": {"ip": "2607:f8b0:4009:803::2008", "url": "https://www.googletagmanager.com/gtag/destination?id=AW-988177400&cx=c&gtm=45je57g1v885761749za200zb6270736&tag_exp=101509157~103116026~103200004~103233427~103351869~103351871~104684208~104684211~104732253~104732255~104908321~104908323~104964065~104964067~104967141~104967143"}, "geometry": {"type": "Point", "coordinates": [-87.65, 41.85]}}, {"type": "Feature", "properties": {"ip": "2a04:4e42:400::729", "url": "https://vjs.zencdn.net/7.1.0/video-js.css"}, "geometry": {"type": "Point", "coordinates": [-122.4194, 37.7749]}}, {"type": "Feature", "properties": {"ip": "2a03:2880:f13a:83:face:b00c:0:25de", "url": "https://www.facebook.com/tr/?id=187548848724320&ev=PageView&dl=https%3A%2F%2Fwww.artic.edu%2F&rl=https%3A%2F%2Fwww.google.com%2F&if=false&ts=1752846535974&sw=1920&sh=1080&v=2.9.216&r=stable&ec=0&o=12318&fbp=fb.1.1750533219815.94172313837987589&cs_est=true&ler=other&cdl=API_unavailable&plt=641.7000000476837&it=1752846535923&coo=false&exp=r1&rqm=GET"}, "geometry": {"type": "Point", "coordinates": [-93.2638, 44.98]}}, {"type": "Feature", "properties": {"ip": "2600:9000:233d:800:1e:c9e4:2300:93a1", "url": "https://www.artic.edu/dist/icons/icons-2fe826e63747528c.svg"}, "geometry": {"type": "Point", "coordinates": [-122.3321, 47.6062]}}, {"type": "Feature", "properties": {"ip": "2607:f8b0:4009:81b::2002", "url": "https://pubads.g.doubleclick.net/activity;xsp=4975994;qty=1;cost=[revenue];ord=[order%20id]?"}, "geometry": {"type": "Point", "coordinates": [-87.65, 41.85]}}, {"type": "Feature", "properties": {"ip": "2a03:2880:f03a:1c:face:b00c:0:3", "url": "https://connect.facebook.net/signals/config/187548848724320?v=2.9.216&r=stable&domain=www.artic.edu&hme=0d2c2eb2669df120d9f277453f8987d9c2d55affb793f9f745ec25e01f4e8872&ex_m=83%2C143%2C124%2C18%2C117%2C58%2C40%2C118%2C64%2C57%2C131%2C72%2C13%2C82%2C26%2C112%2C103%2C62%2C65%2C111%2C128%2C91%2C133%2C7%2C3%2C4%2C6%2C5%2C2%2C73%2C81%2C134%2C205%2C155%2C52%2C210%2C207%2C208%2C45%2C169%2C25%2C61%2C214%2C213%2C157%2C28%2C51%2C8%2C54%2C77%2C78%2C79%2C84%2C107%2C27%2C24%2C110%2C106%2C105%2C125%2C63%2C127%2C126%2C41%2C108%2C50%2C100%2C12%2C130%2C37%2C196%2C198%2C165%2C21%2C22%2C23%2C15%2C16%2C36%2C33%2C34%2C68%2C74%2C76%2C89%2C116%2C119%2C38%2C90%2C19%2C17%2C94%2C59%2C31%2C121%2C120%2C122%2C113%2C20%2C30%2C49%2C88%2C129%2C29%2C179%2C151%2C86%2C109%2C67%2C98%2C44%2C39%2C96%2C97%2C102%2C48%2C14%2C104%2C95%2C55%2C43%2C46%2C0%2C80%2C132%2C1%2C101%2C11%2C99%2C254%2C194%2C141%2C182%2C175%2C9%2C47%2C75%2C53%2C123%2C56%2C93%2C71%2C70%2C42%2C114%2C69%2C66%2C60%2C92%2C85%2C35%2C115%2C32%2C87%2C10%2C135"}, "geometry": {"type": "Point", "coordinates": [-93.2638, 44.98]}}, {"type": "Feature", "properties": {"ip": "142.251.32.2", "url": "https://www.googleadservices.com/pagead/conversion/927226226/?random=1752846536425&cv=9&fst=1752846536425&num=1&npa=1&label=j4BHCJO4-MYZEPKykboD&guid=ON&resp=GooglemKTybQhCsO&eid=375603261%2C466465925%2C512247839%2C658953495&u_h=1080&u_w=1920&sendb=1&ig=1&frm=2&url=https%3A%2F%2F5419318.fls.doubleclick.net%2Factivityi%3Bdc_pre%3DCLre3pjGxo4DFfr6GAIdX_cQAQ%3Bsrc%3D5419318%3Btype%3Dinvmedia%3Bcat%3D7vz4jb4e%3Bdc_lat%3D%3Bdc_rdid%3D%3Btag_for_child_directed_treatment%3D%3Btfua%3D%3Bnpa%3D%3Bord%3D3728101829199.1953%3F&ref=https%3A%2F%2Fservedby.flashtalking.com%2F&top=https%3A%2F%2Fwww.artic.edu&capi=1&hn=www.googleadservices.com&rfmt=3&fmt=4"}, "geometry": {"type": "Point", "coordinates": [-87.65, 41.85]}}, {"type": "Feature", "properties": {"ip": "23.217.55.33", "url": "https://servedby.flashtalking.com/container/4172;79933;5891;iframe/?spotName=Homepage_Remarketing&cachebuster=574289.1691790404"}, "geometry": {"type": "Point", "coordinates": [-93.2638, 44.98]}}, {"type": "Feature", "properties": {"ip": "142.250.191.130", "url": "https://www.googleadservices.com/pagead/set_partitioned_cookie?en=page_view&ref=www.google.com&url=https%3A%2F%2Fwww.artic.edu%2F&scrsrc=www.googletagmanager.com&frm=0&lps=1&rnd=405833059.1752846536&dt=Home%20%7C%20The%20Art%20Institute%20of%20Chicago&auid=675619198.1750533219&navt=r&npa=0&gtm=45He57g1v6270736za200&gcd=13l3l3l3l1l1&dma=0&tag_exp=101509157~103116026~103200004~103233427~103351869~103351871~104684208~104684211~104732253~104732255~104908321~104908323~104921715~104921717~104964065~104964067~104967141~104967143&tft=1752846535817&tfd=619&apve=1&apvf=f"}, "geometry": {"type": "Point", "coordinates": [-87.65, 41.85]}}, {"type": "Feature", "properties": {"ip": "2620:112:f008:200::101", "url": "https://r.turn.com/r/beacon?b2=1dy7riIiMG3BGrp4BJhh4w3IeqNxB0VQQ3QMGE5gIuPB7R5vRneRuOe4XeCOjzjj6vfBy_uDQtFycaz7btRtZg&cid="}, "geometry": {"type": "Point", "coordinates": [-77.4875, 39.0437]}}, {"type": "Feature", "properties": {"ip": "2607:f8b0:4009:80a::2002", "url": "https://googleads.g.doubleclick.net/pagead/viewthroughconversion/988177400/?random=1752846535955&cv=11&fst=1752846535955&bg=ffffff&guid=ON&async=1&gtm=45be57g1z86270736za200zb6270736&gcd=13l3l3l3l1l1&dma=0&tag_exp=101509157~103116026~103200004~103233427~103351869~103351871~104684208~104684211~104732253~104732255~104908321~104908323~104964065~104964067~104967141~104967143&u_w=1920&u_h=1080&url=https%3A%2F%2Fwww.artic.edu%2F&ref=https%3A%2F%2Fwww.google.com%2F&hn=www.googleadservices.com&frm=0&tiba=Home%20%7C%20The%20Art%20Institute%20of%20Chicago&npa=0&pscdl=noapi&auid=675619198.1750533219&uaa=x86&uab=64&uafvl=Not)A%253BBrand%3B8.0.0.0%7CChromium%3B138.0.7204.97%7CGoogle%2520Chrome%3B138.0.7204.97&uamb=0&uam=&uap=Windows&uapv=19.0.0&uaw=0&fledge=1&_tu=Cg&rfmt=3&fmt=4"}, "geometry": {"type": "Point", "coordinates": [-87.65, 41.85]}}, {"type": "Feature", "properties": {"ip": "98.80.116.92", "url": "https://d9.flashtalking.com/lgc"}, "geometry": {"type": "Point", "coordinates": [-77.4875, 39.0437]}}, {"type": "Feature", "properties": {"ip": "2607:f8b0:4009:818::2002", "url": "https://adservice.google.com/ddm/fls/z/dc_pre=CLre3pjGxo4DFfr6GAIdX_cQAQ;src=5419318;type=invmedia;cat=7vz4jb4e;dc_lat=;dc_rdid=;tag_for_child_directed_treatment=;tfua=;npa=;ord=3728101829199.1953"}, "geometry": {"type": "Point", "coordinates": [-87.65, 41.85]}}, {"type": "Feature", "properties": {"ip": "23.2.152.114", "url": "https://cloud.typography.com/612324/7579192/css/fonts.css"}, "geometry": {"type": "Point", "coordinates": [-93.2638, 44.98]}}, {"type": "Feature", "properties": {"ip": "2607:f8b0:4009:801::200e", "url": "https://www.google-analytics.com/j/collect?v=1&_v=j101&a=1429194917&t=pageview&_s=1&dl=https%3A%2F%2Fwww.artic.edu%2F&dr=https%3A%2F%2Fwww.google.com%2F&ul=en-us&de=UTF-8&dt=Home%20%7C%20The%20Art%20Institute%20of%20Chicago&sd=24-bit&sr=1920x1080&vp=958x911&je=0&_u=QCCAgEABAAAAACAAI~&jid=&gjid=&cid=274772621.1750533220&tid=UA-4351925-1&_gid=532200805.1752846531&_slc=1&gtm=45He57g1n71MQBCFSv6270736za200&cd3=GTM-MQBCFS%20-%20216&gcd=13l3l3l3l1l1&dma=0&tag_exp=101509157~103116026~103200004~103233427~103351869~103351871~104684208~104684211~104732253~104732255~104908321~104908323~104921715~104921717~104964065~104964067~104967141~104967143&z=696569757"}, "geometry": {"type": "Point", "coordinates": [-87.65, 41.85]}}, {"type": "Feature", "properties": {"ip": "142.250.191.166", "url": "https://5419318.fls.doubleclick.net/activityi;dc_pre=CLre3pjGxo4DFfr6GAIdX_cQAQ;src=5419318;type=invmedia;cat=7vz4jb4e;dc_lat=;dc_rdid=;tag_for_child_directed_treatment=;tfua=;npa=;ord=3728101829199.1953?"}, "geometry": {"type": "Point", "coordinates": [-87.65, 41.85]}}, {"type": "Feature", "properties": {"ip": "2607:f8b0:4009:805::2002", "url": "https://googleads.g.doubleclick.net/pagead/viewthroughconversion/927226226/?random=1027062905&cv=9&fst=1752846536425&num=1&npa=1&label=j4BHCJO4-MYZEPKykboD&guid=ON&resp=GooglemKTybQhCsO&eid=375603261%2C466465925%2C512247839%2C658953495&u_h=1080&u_w=1920&sendb=1&ig=1&frm=2&url=https%3A%2F%2F5419318.fls.doubleclick.net%2Factivityi%3Bdc_pre%3DCLre3pjGxo4DFfr6GAIdX_cQAQ%3Bsrc%3D5419318%3Btype%3Dinvmedia%3Bcat%3D7vz4jb4e%3Bdc_lat%3D%3Bdc_rdid%3D%3Btag_for_child_directed_treatment%3D%3Btfua%3D%3Bnpa%3D%3Bord%3D3728101829199.1953%3F&ref=https%3A%2F%2Fservedby.flashtalking.com%2F&top=https%3A%2F%2Fwww.artic.edu&capi=1&hn=www.googleadservices.com&fmt=3&ct_cookie_present=false&crd=CPLOsQIIobixAgjR1bECCLHBsQIIsMGxAgixw7ECCIrFsQIIwsmxAgi0xrECCJDJsQIIws-xAgjTxbECCOvMsQIIz86xAgjuzrECCP7OsQII1c-xAgju0LECCJfUsQJKFWV2ZW50LXNvdXJjZSwgdHJpZ2dlcloDCgEBYgQKAgID&fusion_key=ChAI8OHnwwYQ4snvrqXbgf0vEiwATV3N9TR0q4reDWBkXYiG4VwC2kSgbeOGFyTDgQUusGDUWSYORLeJSv0CFRoCpfM&pscrd=IhMIltbpmMbGjgMVosEYAh24ag9WMgwIA2IICAAQABgAIAAyDAgEYggIABAAGAAgADIMCAdiCAgAEAAYACAAMgwICGIICAAQABgAIAAyDAgJYggIABAAGAAgADIMCApiCAgAEAAYACAAMgwIAmIICAAQABgAIAAyDAgLYggIABAAGAAgADIMCBViCAgAEAAYACAAMgwIH2IICAAQABgAIAAyDAgTYggIABAAGAAgADIMCBJiCAgAEAAYACAAOiRodHRwczovLzU0MTkzMTguZmxzLmRvdWJsZWNsaWNrLm5ldC96DAgJYggIABAAGAAgAA"}, "geometry": {"type": "Point", "coordinates": [-87.65, 41.85]}}, {"type": "Feature", "properties": {"ip": "2607:f8b0:4009:81b::200e", "url": "https://segment-pixel.invitemedia.com/pixel?pixelID=139811&partnerID=77&clientID=11393&key=segment&returnType=js"}, "geometry": {"type": "Point", "coordinates": [-87.65, 41.85]}}, {"type": "Feature", "properties": {"ip": "2600:9000:2340:aa00:1c:8ef4:18c0:93a1", "url": "https://api.artic.edu/api/v1/exhibitions/search?fields=title%2Cimage_url%2Cweb_url&query%5Bbool%5D%5Bmust%5D%5B%5D%5Brange%5D%5Baic_start_at%5D%5Blte%5D=now&query%5Bbool%5D%5Bmust%5D%5B%5D%5Bterm%5D%5Bis_published%5D=true&query%5Bbool%5D%5Bmust%5D%5B%5D%5Bterm%5D%5Bposition%5D=0&size=1"}, "geometry": {"type": "Point", "coordinates": [-122.3321, 47.6062]}}, {"type": "Feature", "properties": {"ip": "2606:4700::6811:180e", "url": "https://cdnjs.cloudflare.com/ajax/libs/picturefill/3.0.3/picturefill.min.js"}, "geometry": {"type": "Point", "coordinates": [-122.3971, 37.7621]}}, {"type": "Feature", "properties": {"ip": "64.233.179.155", "url": "https://bid.g.doubleclick.net/xbbe/invitepixel/pixel?pixelID=139811&partnerID=77&clientID=11393&key=segment&returnType=js"}, "geometry": {"type": "Point", "coordinates": [-95.9404, 41.2563]}}, {"type": "Feature", "properties": {"ip": "2607:f8b0:4009:802::2002", "url": "https://td.doubleclick.net/td/rul/988177400?random=1752846535955&cv=11&fst=1752846535955&fmt=3&bg=ffffff&guid=ON&async=1&gtm=45be57g1z86270736za200zb6270736&gcd=13l3l3l3l1l1&dma=0&tag_exp=101509157~103116026~103200004~103233427~103351869~103351871~104684208~104684211~104732253~104732255~104908321~104908323~104964065~104964067~104967141~104967143&u_w=1920&u_h=1080&url=https%3A%2F%2Fwww.artic.edu%2F&ref=https%3A%2F%2Fwww.google.com%2F&hn=www.googleadservices.com&frm=0&tiba=Home%20%7C%20The%20Art%20Institute%20of%20Chicago&npa=0&pscdl=noapi&auid=675619198.1750533219&uaa=x86&uab=64&uafvl=Not)A%253BBrand%3B8.0.0.0%7CChromium%3B138.0.7204.97%7CGoogle%2520Chrome%3B138.0.7204.97&uamb=0&uam=&uap=Windows&uapv=19.0.0&uaw=0&fledge=1&_tu=Cg"}, "geometry": {"type": "Point", "coordinates": [-87.65, 41.85]}}]}